[{"OBJECT_NAME":"STARLINK-32382","OBJECT_ID":"2024-175R","EPOCH":"2026-03-09T13:34:44.591232","MEAN_MOTION":15.30201487,"ECCENTRICITY":0.0001075,"INCLINATION":53.1598,"RA_OF_ASC_NODE":194.6837,"ARG_OF_PERICENTER":81.8402,"MEAN_ANOMALY":278.272,"EPHEMERIS_TYPE":0,"CLASSIFICATION_TYPE":"U","NORAD_CAT_ID":61258,"ELEMENT_SET_NO":999,"REV_AT_EPOCH":8143,"BSTAR":-3.4919e-5,"MEAN_MOTION_DOT":-1.393e-5,"MEAN_MOTION_DDOT":0},{"OBJECT_NAME":"COSMOS 2588","OBJECT_ID":"2025-109A","EPOCH":"2026-03-09T19:28:59.107008","MEAN_MOTION":15.29122656,"ECCENTRICITY":0.0005019,"INCLINATION":72.9704,"RA_OF_ASC_NODE":73.5401,"ARG_OF_PERICENTER":308.678,"MEAN_ANOMALY":51.3966,"EPHEMERIS_TYPE":0,"CLASSIFICATION_TYPE":"U","NORAD_CAT_ID":64095,"ELEMENT_SET_NO":999,"REV_AT_EPOCH":4442,"BSTAR":0.00032611,"MEAN_MOTION_DOT":9.169e-5,"MEAN_MOTION_DDOT":0}]
